CAPELLA-11 (ACADIA-1)   
1 57693U 23126A   26191.00493379  .00002803  00000+0  35454-3 0  9994
2 57693  53.0046  85.8570 0001024  95.7203 264.3892 14.84739223155510
CAPELLA-14 (ACADIA-4)   
1 59444U 24066C   26191.40113345  .00008048  00000+0  51362-3 0  9993
2 59444  45.6019 133.0062 0000256 292.3900  67.6958 15.09192985115991
CAPELLA-13 (ACADIA-3)   
1 60419U 24142A   26190.87394710  .00003316  00000+0  38643-3 0  9999
2 60419  53.0054 318.5396 0001246  89.7217 270.3906 14.87663021103785
CAPELLA-15 (ACADIA-5)   
1 60544U 24149CE  26189.77779346  .00002013  00000+0  20207-3 0  9994
2 60544  97.6776 262.1397 0003386   8.7995 351.3283 14.92382217103076
CAPELLA-17 (ACADIA-7)   
1 64583U 25135BH  26191.55081943  .00003559  00000+0  36020-3 0  9991
2 64583  97.7702 304.8274 0003868 270.4827  89.5949 14.91591361 57335
CAPELLA-16 (ACADIA-6)   
1 65318U 25188D   26189.92553983  .00003312  00000+0  31588-3 0  9993
2 65318  97.7375 264.7514 0005200 152.8898 207.2595 14.94003832 47162
CAPELLA-19 (ACADIA-9)   
1 67384U 26004X   26190.47750634  .00003681  00000+0  42048-3 0  9992
2 67384  97.8006 188.4486 0001513  95.8050 264.3338 14.86651910 26587
CAPELLA-18 (ACADIA-8)   
1 67385U 26004Y   26190.48754084  .00000827  00000+0  99145-4 0  9997
2 67385  97.8020 188.6087 0000795   9.4479 350.6751 14.86647255 26596
CAPELLA-20 (ACADIA-10)  
1 68485U 26067BX  26191.33336806  .00048196  00000+0  47729-2 0  9991
2 68485  97.7580 149.2589 0000874 142.3971  27.8870 14.91636050  5702
